{
  "type": "FeatureCollection",
  "features": [
    {
      "type": "Feature",
      "properties": {
        "norad_id": 32099,
        "name": "FENGYUN 1C DEB",
        "group": "fengyun-1c-debris",
        "lat": -81.06954271795162,
        "lon": 32.770157417794216,
        "alt_km": 690.4228957843688,
        "timestamp": "2025-12-19T16:54:44.546949+00:00",
        "meta_object_name": "FENGYUN 1C DEB",
        "meta_object_id": "1999-025CQR",
        "meta_epoch": "2025-12-13T04:24:17.454240",
        "meta_mean_motion": 13.91775545,
        "meta_eccentricity": 0.03428827,
        "meta_inclination": 98.2819,
        "meta_ra_of_asc_node": 318.9761,
        "meta_arg_of_pericenter": 273.8166,
        "meta_mean_anomaly": 102.561,
        "meta_ephemeris_type": 0,
        "meta_classification_type": "U",
        "meta_norad_cat_id": 32099,
        "meta_element_set_no": 999,
        "meta_rev_at_epoch": 64694,
        "meta_bstar": 0.0015539286,
        "meta_mean_motion_dot": 3.154e-05,
        "meta_mean_motion_ddot": 0,
        "tle_line1": "1 32099U 99025CQR 25347.18353535  .00003154  00000+0  15539-2 0  9999",
        "tle_line2": "2 32099  98.2819 318.9761 0342882 273.8166 102.5610 13.91775545646948"
      },
      "geometry": {
        "type": "Point",
        "coordinates": [
          32.770157417794216,
          -81.06954271795162
        ]
      }
    },
    {
      "type": "Feature",
      "properties": {
        "norad_id": 32101,
        "name": "FENGYUN 1C DEB",
        "group": "fengyun-1c-debris",
        "lat": -63.88696992437959,
        "lon": 53.758878880067314,
        "alt_km": 816.3884926849387,
        "timestamp": "2025-12-19T16:54:44.546959+00:00",
        "meta_object_name": "FENGYUN 1C DEB",
        "meta_object_id": "1999-025CQT",
        "meta_epoch": "2025-12-18T22:36:44.132544",
        "meta_mean_motion": 14.01685648,
        "meta_eccentricity": 0.01202051,
        "meta_inclination": 99.0333,
        "meta_ra_of_asc_node": 251.9413,
        "meta_arg_of_pericenter": 221.4652,
        "meta_mean_anomaly": 137.7345,
        "meta_ephemeris_type": 0,
        "meta_classification_type": "U",
        "meta_norad_cat_id": 32101,
        "meta_element_set_no": 999,
        "meta_rev_at_epoch": 93269,
        "meta_bstar": 0.0015601409,
        "meta_mean_motion_dot": 2.476e-05,
        "meta_mean_motion_ddot": 0,
        "tle_line1": "1 32101U 99025CQT 25352.94217746  .00002476  00000+0  15601-2 0  9992",
        "tle_line2": "2 32101  99.0333 251.9413 0120205 221.4652 137.7345 14.01685648932695"
      },
      "geometry": {
        "type": "Point",
        "coordinates": [
          53.758878880067314,
          -63.88696992437959
        ]
      }
    },
    {
      "type": "Feature",
      "properties": {
        "norad_id": 32105,
        "name": "FENGYUN 1C DEB",
        "group": "fengyun-1c-debris",
        "lat": 72.56165787000299,
        "lon": -142.83609518174006,
        "alt_km": 871.6685179400556,
        "timestamp": "2025-12-19T16:54:44.546971+00:00",
        "meta_object_name": "FENGYUN 1C DEB",
        "meta_object_id": "1999-025CQX",
        "meta_epoch": "2025-12-17T05:19:37.418304",
        "meta_mean_motion": 13.40288111,
        "meta_eccentricity": 0.03945751,
        "meta_inclination": 103.4645,
        "meta_ra_of_asc_node": 344.1703,
        "meta_arg_of_pericenter": 65.7841,
        "meta_mean_anomaly": 298.3981,
        "meta_ephemeris_type": 0,
        "meta_classification_type": "U",
        "meta_norad_cat_id": 32105,
        "meta_element_set_no": 999,
        "meta_rev_at_epoch": 59771,
        "meta_bstar": 0.0022256108,
        "meta_mean_motion_dot": 1.853e-05,
        "meta_mean_motion_ddot": 0,
        "tle_line1": "1 32105U 99025CQX 25351.22196086  .00001853  00000+0  22256-2 0  9991",
        "tle_line2": "2 32105 103.4645 344.1703 0394575  65.7841 298.3981 13.40288111597710"
      },
      "geometry": {
        "type": "Point",
        "coordinates": [
          -142.83609518174006,
          72.56165787000299
        ]
      }
    },
    {
      "type": "Feature",
      "properties": {
        "norad_id": 32106,
        "name": "FENGYUN 1C DEB",
        "group": "fengyun-1c-debris",
        "lat": 42.75516175055697,
        "lon": -43.58006257674206,
        "alt_km": 723.2978323972648,
        "timestamp": "2025-12-19T16:54:44.546982+00:00",
        "meta_object_name": "FENGYUN 1C DEB",
        "meta_object_id": "1999-025CQY",
        "meta_epoch": "2025-12-14T15:33:56.008224",
        "meta_mean_motion": 14.27045005,
        "meta_eccentricity": 0.01101626,
        "meta_inclination": 101.4619,
        "meta_ra_of_asc_node": 320.6242,
        "meta_arg_of_pericenter": 37.2039,
        "meta_mean_anomaly": 323.67,
        "meta_ephemeris_type": 0,
        "meta_classification_type": "U",
        "meta_norad_cat_id": 32106,
        "meta_element_set_no": 999,
        "meta_rev_at_epoch": 69419,
        "meta_bstar": 0.003667977,
        "meta_mean_motion_dot": 9.474e-05,
        "meta_mean_motion_ddot": 0,
        "tle_line1": "1 32106U 99025CQY 25348.64856491  .00009474  00000+0  36680-2 0  9990",
        "tle_line2": "2 32106 101.4619 320.6242 0110162  37.2039 323.6700 14.27045005694198"
      },
      "geometry": {
        "type": "Point",
        "coordinates": [
          -43.58006257674206,
          42.75516175055697
        ]
      }
    },
    {
      "type": "Feature",
      "properties": {
        "norad_id": 32109,
        "name": "FENGYUN 1C DEB",
        "group": "fengyun-1c-debris",
        "lat": 7.0964473287278,
        "lon": -128.00325842606316,
        "alt_km": 741.3765459642382,
        "timestamp": "2025-12-19T16:54:44.546992+00:00",
        "meta_object_name": "FENGYUN 1C DEB",
        "meta_object_id": "1999-025CRB",
        "meta_epoch": "2025-12-15T22:26:56.704992",
        "meta_mean_motion": 14.3395276,
        "meta_eccentricity": 0.02055059,
        "meta_inclination": 98.3614,
        "meta_ra_of_asc_node": 229.3988,
        "meta_arg_of_pericenter": 302.7937,
        "meta_mean_anomaly": 55.3599,
        "meta_ephemeris_type": 0,
        "meta_classification_type": "U",
        "meta_norad_cat_id": 32109,
        "meta_element_set_no": 999,
        "meta_rev_at_epoch": 64934,
        "meta_bstar": 0.00043905437,
        "meta_mean_motion_dot": 1.501e-05,
        "meta_mean_motion_ddot": 0,
        "tle_line1": "1 32109U 99025CRB 25349.93537853  .00001501  00000+0  43905-3 0  9996",
        "tle_line2": "2 32109  98.3614 229.3988 0205505 302.7937  55.3599 14.33952760649349"
      },
      "geometry": {
        "type": "Point",
        "coordinates": [
          -128.00325842606316,
          7.0964473287278
        ]
      }
    },
    {
      "type": "Feature",
      "properties": {
        "norad_id": 32110,
        "name": "FENGYUN 1C DEB",
        "group": "fengyun-1c-debris",
        "lat": -77.66205420572979,
        "lon": -66.71579401299329,
        "alt_km": 800.2449819971744,
        "timestamp": "2025-12-19T16:54:44.547003+00:00",
        "meta_object_name": "FENGYUN 1C DEB",
        "meta_object_id": "1999-025CRC",
        "meta_epoch": "2025-12-19T07:50:23.156160",
        "meta_mean_motion": 14.28937827,
        "meta_eccentricity": 0.00334277,
        "meta_inclination": 99.5427,
        "meta_ra_of_asc_node": 163.1409,
        "meta_arg_of_pericenter": 347.8538,
        "meta_mean_anomaly": 131.1063,
        "meta_ephemeris_type": 0,
        "meta_classification_type": "U",
        "meta_norad_cat_id": 32110,
        "meta_element_set_no": 999,
        "meta_rev_at_epoch": 64482,
        "meta_bstar": 0.00099927437,
        "meta_mean_motion_dot": 2.489e-05,
        "meta_mean_motion_ddot": 0,
        "tle_line1": "1 32110U 99025CRC 25353.32665690  .00002489  00000+0  99927-3 0  9998",
        "tle_line2": "2 32110  99.5427 163.1409 0033427 347.8538 131.1063 14.28937827644826"
      },
      "geometry": {
        "type": "Point",
        "coordinates": [
          -66.71579401299329,
          -77.66205420572979
        ]
      }
    },
    {
      "type": "Feature",
      "properties": {
        "norad_id": 32111,
        "name": "FENGYUN 1C DEB",
        "group": "fengyun-1c-debris",
        "lat": -30.90271621915594,
        "lon": -1.6541439016208348,
        "alt_km": 862.2723408224438,
        "timestamp": "2025-12-19T16:54:44.547014+00:00",
        "meta_object_name": "FENGYUN 1C DEB",
        "meta_object_id": "1999-025CRD",
        "meta_epoch": "2025-12-17T23:15:28.889568",
        "meta_mean_motion": 14.31552028,
        "meta_eccentricity": 0.01199865,
        "meta_inclination": 98.4433,
        "meta_ra_of_asc_node": 351.5571,
        "meta_arg_of_pericenter": 189.336,
        "meta_mean_anomaly": 199.2635,
        "meta_ephemeris_type": 0,
        "meta_classification_type": "U",
        "meta_norad_cat_id": 32111,
        "meta_element_set_no": 999,
        "meta_rev_at_epoch": 96106,
        "meta_bstar": 0.00016396968,
        "meta_mean_motion_dot": 4.28e-06,
        "meta_mean_motion_ddot": 0,
        "tle_line1": "1 32111U 99025CRD 25351.96908437  .00000428  00000+0  16397-3 0  9997",
        "tle_line2": "2 32111  98.4433 351.5571 0119986 189.3360 199.2635 14.31552028961060"
      },
      "geometry": {
        "type": "Point",
        "coordinates": [
          -1.6541439016208348,
          -30.90271621915594
        ]
      }
    }
  ]
}